NORAD_CAT_ID,OBJECT_NAME,OBJECT_TYPE,EPOCH,MEAN_MOTION,ECCENTRICITY,INCLINATION,RA_OF_ASC_NODE,ARG_OF_PERICENTER,MEAN_ANOMALY,BSTAR,MEAN_MOTION_DOT,MEAN_MOTION_DDOT,TLE_LINE0,TLE_LINE1,TLE_LINE2,SEMIMAJOR_AXIS,PERIOD,APOGEE,PERIGEE,DECAYED
53923.0,STARLINK-5004,PAYLOAD,2023-01-03 19:23:46,15.08816052,0.0001538,53.2175,125.3367,97.3427,262.774,0.00019485,2.812e-05,0.0,0 STARLINK-5004,1 53923U 22119AP  23003.80817947  .00002812  00000-0  19485-3 0  9992,2 53923  53.2175 125.3367 0001538  97.3427 262.7740 15.08816052 16150,6917.954000000002,95.439,540.883,538.755,0.0
53923.0,STARLINK-5004,PAYLOAD,2023-01-04 08:06:51,15.08835358,0.0001177,53.217,122.9573,95.8862,264.2265,2.3004e-06,-2.51e-06,0.0,0 STARLINK-5004,1 53923U 22119AP  23004.33809393 -.00000251  00000-0  23004-5 0  9997,2 53923  53.2170 122.9573 0001177  95.8862 264.2265 15.08835358 16230,6917.895,95.438,540.5740000000002,538.945,0.0
53923.0,STARLINK-5004,PAYLOAD,2023-01-04 14:28:23,15.08842203,0.0001036999999999,53.2171,121.7703,78.9865,281.1243,7.302199999999999e-05,8.75e-06,0.0,0 STARLINK-5004,1 53923U 22119AP  23004.60304751  .00000875  00000-0  73022-4 0  9990,2 53923  53.2171 121.7703 0001037  78.9865 281.1243 15.08842203 16694,6917.874,95.437,540.456,539.021,0.0
53923.0,STARLINK-5004,PAYLOAD,2023-01-05 07:57:36,15.08851572,0.0001423,53.2157,118.4967,87.8111,272.3044,0.00010041,1.311e-05,0.0,0 STARLINK-5004,1 53923U 22119AP  23005.33167688  .00001311  00000-0  10041-3 0  9994,2 53923  53.2157 118.4967 0001423  87.8111 272.3044 15.08851572 16381,6917.845,95.437,540.694,538.726,0.0
53923.0,STARLINK-5004,PAYLOAD,2023-01-05 14:19:09,15.08847826,0.0001425,53.2172,117.3104,80.7264,279.3889,0.00013387,1.844e-05,0.0,0 STARLINK-5004,1 53923U 22119AP  23005.59663622  .00001844  00000-0  13387-3 0  9998,2 53923  53.2172 117.3104 0001425  80.7264 279.3889 15.08847826 16844,6917.856,95.437,540.707,538.736,0.0
53923.0,STARLINK-5004,PAYLOAD,2023-01-05 17:29:55,15.08849049,0.000121,53.2167,116.7156,82.5876,277.5253,9.025e-05,1.149e-05,0.0,0 STARLINK-5004,1 53923U 22119AP  23005.72911583  .00001149  00000-0  90250-4 0  9998,2 53923  53.2167 116.7156 0001210  82.5876 277.5253 15.08849049 16865,6917.853,95.437,540.555,538.881,0.0
53923.0,STARLINK-5004,PAYLOAD,2023-01-06 07:48:26,15.08818271,0.0001208,53.2161,114.0373,79.2737,280.8391,-0.00015403,-2.737e-05,0.0,0 STARLINK-5004,1 53923U 22119AP  23006.32530437 -.00002737  00000-0 -15403-3 0  9992,2 53923  53.2161 114.0373 0001208  79.2737 280.8391 15.08818271 16534,6917.946999999999,95.439,540.6469999999998,538.976,0.0
53923.0,STARLINK-5004,PAYLOAD,2023-01-06 15:45:22,15.08822696,0.0001323,53.2162,112.5493,78.1947,281.9193,-0.00022508,-3.867e-05,0.0,0 STARLINK-5004,1 53923U 22119AP  23006.65650768 -.00003867  00000-0 -22508-3 0  9997,2 53923  53.2162 112.5493 0001323  78.1947 281.9193 15.08822696 17001,6917.933000000001,95.439,540.714,538.883,0.0
53923.0,STARLINK-5004,PAYLOAD,2023-01-06 23:42:17,15.08826691,0.0001341,53.2173,111.0628,77.2792,282.835,-8.598899999999999e-05,-1.656e-05,0.0,0 STARLINK-5004,1 53923U 22119AP  23006.98770348 -.00001656  00000-0 -85989-4 0  9997,2 53923  53.2173 111.0628 0001341  77.2792 282.8350 15.08826691 16637,6917.920999999999,95.438,540.714,538.8580000000002,0.0
53923.0,STARLINK-5004,PAYLOAD,2023-01-07 09:14:35,15.08838777,0.0001291999999999,53.2169,109.2782,78.3321,281.7816,-7.9012e-05,-1.545e-05,0.0,0 STARLINK-5004,1 53923U 22119AP  23007.38513577 -.00001545  00000-0 -79012-4 0  9998,2 53923  53.2169 109.2782 0001292  78.3321 281.7816 15.08838777 16696,6917.884,95.438,540.643,538.855,0.0
53923.0,STARLINK-5004,PAYLOAD,2023-01-07 17:11:31,15.08837971,0.0001307,53.2168,107.7914,77.8747,282.2392,-7.1788e-05,-1.4300000000000004e-05,0.0,0 STARLINK-5004,1 53923U 22119AP  23007.71633688 -.00001430  00000-0 -71788-4 0  9996,2 53923  53.2168 107.7914 0001307  77.8747 282.2392 15.08837971 17161,6917.887,95.438,540.656,538.847,0.0
53923.0,STARLINK-5004,PAYLOAD,2023-01-07 23:33:05,15.08828148,0.0001227,53.217,106.6023,70.3103,289.8022,-0.00017049,-2.999e-05,0.0,0 STARLINK-5004,1 53923U 22119AP  23007.98130970 -.00002999  00000-0 -17049-3 0  9991,2 53923  53.2170 106.6023 0001227  70.3103 289.8022 15.08828148 16784,6917.917,95.438,540.63,538.933,0.0
53923.0,STARLINK-5004,PAYLOAD,2023-01-08 07:30:00,15.08816959,8.840000000000001e-05,53.2171,105.1166,72.7214,287.3875,0.00011017,1.465e-05,0.0,0 STARLINK-5004,1 53923U 22119AP  23008.31250934  .00001465  00000-0  11017-3 0  9996,2 53923  53.2171 105.1166 0000884  72.7214 287.3875 15.08816959 17253,6917.951,95.439,540.427,539.2040000000002,0.0
53923.0,STARLINK-5004,PAYLOAD,2023-01-08 23:23:51,15.08834658,0.0001268,53.2167,102.1426,73.4363,286.6768,0.00021395,3.118e-05,0.0,0 STARLINK-5004,1 53923U 22119AP  23008.97490124  .00003118  00000-0  21395-3 0  9992,2 53923  53.2167 102.1426 0001268  73.4363 286.6768 15.08834658 16937,6917.897,95.438,540.639,538.885,0.0
53923.0,STARLINK-5004,PAYLOAD,2023-01-09 12:06:56,15.08842157,0.0001164,53.217,99.7639,72.3073,287.8046,9.0317e-05,1.15e-05,0.0,0 STARLINK-5004,1 53923U 22119AP  23009.50482055  .00001150  00000-0  90317-4 0  9991,2 53923  53.2170  99.7639 0001164  72.3073 287.8046 15.08842157 17430,6917.874,95.437,540.544,538.934,0.0
53923.0,STARLINK-5004,PAYLOAD,2023-01-09 15:17:42,15.08826867,0.0001168,53.2171,99.1694,75.6333,284.4789,0.00027906,4.155e-05,0.0,0 STARLINK-5004,1 53923U 22119AP  23009.63730310  .00004155  00000-0  27906-3 0  9996,2 53923  53.2171  99.1694 0001168  75.6333 284.4789 15.08826867 17454,6917.920999999999,95.438,540.594,538.9780000000002,0.0
53923.0,STARLINK-5004,PAYLOAD,2023-01-10 11:57:44,15.088242,0.0001205,53.2172,95.3038,76.5852,283.5275,0.00018878,2.717e-05,0.0,0 STARLINK-5004,1 53923U 22119AP  23010.49843024  .00002717  00000-0  18878-3 0  9999,2 53923  53.2172  95.3038 0001205  76.5852 283.5275 15.08824200 17160,6917.929,95.439,540.627,538.96,0.0
53923.0,STARLINK-5004,PAYLOAD,2023-01-10 15:08:30,15.08836082,0.0001485,53.2165,94.709,76.8727,283.2431,5.1542e-05,5.32e-06,0.0,0 STARLINK-5004,1 53923U 22119AP  23010.63090645  .00000532  00000-0  51542-4 0  9997,2 53923  53.2165  94.7090 0001485  76.8727 283.2431 15.08836082 17181,6917.892,95.438,540.785,538.73,0.0
53923.0,STARLINK-5004,PAYLOAD,2023-01-11 11:48:30,15.08845842,0.0001384,53.2165,90.8434,72.2294,287.8849,-5.526e-06,-3.76e-06,0.0,0 STARLINK-5004,1 53923U 22119AP  23011.49201850 -.00000376  00000-0 -55260-5 0  9994,2 53923  53.2165  90.8434 0001384  72.2294 287.8849 15.08845842 17319,6917.863,95.437,540.685,538.77,0.0
53923.0,STARLINK-5004,PAYLOAD,2023-01-11 14:59:16,15.08847755,0.0001433,53.2161,90.2486,70.5486,289.5661,1.9042e-05,1.5e-07,0.0,0 STARLINK-5004,1 53923U 22119AP  23011.62449589  .00000015  00000-0  19042-4 0  9997,2 53923  53.2161  90.2486 0001433  70.5486 289.5661 15.08847755 17759,6917.857,95.437,540.7130000000002,538.73,0.0
53923.0,STARLINK-5004,PAYLOAD,2023-01-12 14:50:05,15.08828089,0.0001439,53.2164,85.7874,78.7974,281.318,-7.4968e-05,-1.4800000000000002e-05,0.0,0 STARLINK-5004,1 53923U 22119AP  23012.61811683 -.00001480  00000-0 -74968-4 0  9992,2 53923  53.2164  85.7874 0001439  78.7974 281.3180 15.08828089 17485,6917.917,95.438,540.7769999999998,538.786,0.0
53923.0,STARLINK-5004,PAYLOAD,2023-01-12 21:11:38,15.08825628,0.0001455,53.2163,84.5979,79.0409,281.0746,-8.8991e-05,-1.703e-05,0.0,0 STARLINK-5004,1 53923U 22119AP  23012.88308100 -.00001703  00000-0 -88991-4 0  9995,2 53923  53.2163  84.5979 0001455  79.0409 281.0746 15.08825628 17944,6917.924,95.438,540.7959999999998,538.783,0.0
53923.0,STARLINK-5004,PAYLOAD,2023-01-13 11:30:05,15.08835338,0.000139,53.2178,81.9274,83.818,276.297,4.0008e-05,3.49e-06,0.0,0 STARLINK-5004,1 53923U 22119AP  23013.47923467  .00000349  00000-0  40008-4 0  9990,2 53923  53.2178  81.9274 0001390  83.8180 276.2970 15.08835338 17614,6917.895,95.438,540.721,538.798,0.0
53923.0,STARLINK-5004,PAYLOAD,2023-01-13 21:02:24,15.0883879,0.0001326,53.2167,80.139,80.3371,279.7771,-3.6104e-05,-8.62e-06,0.0,0 STARLINK-5004,1 53923U 22119AP  23013.87667430 -.00000862  00000-0 -36104-4 0  9993,2 53923  53.2167  80.1390 0001326  80.3371 279.7771 15.08838790 18090,6917.884,95.438,540.6659999999999,538.832,0.0
53923.0,STARLINK-5004,PAYLOAD,2023-01-14 03:23:57,15.08824074,0.0001313,53.2182,78.9525,83.5885,276.5257,0.00011179,1.491e-05,0.0,0 STARLINK-5004,1 53923U 22119AP  23014.14164191  .00001491  00000-0  11179-3 0  9991,2 53923  53.2182  78.9525 0001313  83.5885 276.5257 15.08824074 17715,6917.929,95.439,540.702,538.886,0.0
53923.0,STARLINK-5004,PAYLOAD,2023-01-14 11:20:53,15.08834765,0.0001261,53.2159,77.4601,67.4702,292.6423,0.00010444,1.374e-05,0.0,0 STARLINK-5004,1 53923U 22119AP  23014.47283958  .00001374  00000-0  10444-3 0  9994,2 53923  53.2159  77.4601 0001261  67.4702 292.6423 15.08834765 17766,6917.896,95.438,540.634,538.889,0.0
53923.0,STARLINK-5004,PAYLOAD,2023-01-15 03:14:45,15.08824056,0.0001289,53.2162,74.4898,73.3257,286.7876,4.7271e-05,4.64e-06,0.0,0 STARLINK-5004,1 53923U 22119AP  23015.13525311  .00000464  00000-0  47271-4 0  9998,2 53923  53.2162  74.4898 0001289  73.3257 286.7876 15.08824056 17865,6917.929,95.439,540.686,538.9019999999999,0.0
53923.0,STARLINK-5004,PAYLOAD,2023-01-15 04:50:09,15.08825353,0.0001379,53.2173,74.1926,86.2172,273.8978,-1.2602e-05,-4.88e-06,0.0,0 STARLINK-5004,1 53923U 22119AP  23015.20149523 -.00000488  00000-0 -12602-4 0  9991,2 53923  53.2173  74.1926 0001379  86.2172 273.8978 15.08825353 18294,6917.925,95.438,540.744,538.836,0.0
53923.0,STARLINK-5004,PAYLOAD,2023-01-15 20:43:59,15.08849666,0.0001224,53.2168,71.2162,88.5425,271.5707,1.5864e-05,-3.5e-07,0.0,0 STARLINK-5004,1 53923U 22119AP  23015.86387792 -.00000035  00000-0  15864-4 0  9995,2 53923  53.2168  71.2162 0001224  88.5425 271.5707 15.08849666 18392,6917.851,95.437,540.563,538.869,0.0
